[{"OBJECT_NAME":"HJ-2E","OBJECT_ID":"2022-132A","EPOCH":"2026-03-09T23:35:26.064384","MEAN_MOTION":15.20837982,"ECCENTRICITY":0.00208255,"INCLINATION":97.3835,"RA_OF_ASC_NODE":75.2449,"ARG_OF_PERICENTER":2.2489,"MEAN_ANOMALY":357.8836,"EPHEMERIS_TYPE":0,"CLASSIFICATION_TYPE":"U","NORAD_CAT_ID":54035,"ELEMENT_SET_NO":999,"REV_AT_EPOCH":18933,"BSTAR":0.00049905736,"MEAN_MOTION_DOT":0.00011016,"MEAN_MOTION_DDOT":0},{"OBJECT_NAME":"LANDSAT 5","OBJECT_ID":"1984-021A","EPOCH":"2026-03-09T17:06:39.595392","MEAN_MOTION":15.03956175,"ECCENTRICITY":0.00705197,"INCLINATION":98.0698,"RA_OF_ASC_NODE":343.5816,"ARG_OF_PERICENTER":90.3041,"MEAN_ANOMALY":270.6265,"EPHEMERIS_TYPE":0,"CLASSIFICATION_TYPE":"U","NORAD_CAT_ID":14780,"ELEMENT_SET_NO":999,"REV_AT_EPOCH":77643,"BSTAR":0.00029889959,"MEAN_MOTION_DOT":4.286e-5,"MEAN_MOTION_DDOT":0}]
